CTC2_L_00407016-03
1 87193U 26145NR  26037.47795139  .00000000  00000+0  00000-0 0  9998
2 87193  45.0000 180.0000 0000000   0.0000   0.0000 12.65579224    12
CTC2_L_00407016-04
1 87194U 22489RS  26037.47795139  .00000000  00000+0  00000-0 0  9996
2 87194  45.0000 180.0000 0000000   0.0000  90.0000 12.65579224    12
CTC2_L_00407017-01
1 87195U 25201CN  26037.47795139  .00000000  00000+0  00000-0 0  9992
2 87195  45.0000 192.0000 0000000   0.0000 192.0000 12.65579224    19
CTC2_L_00407017-02
1 87196U 24402GA  26037.47795139  .00000000  00000+0  00000-0 0  9995
2 87196  45.0000 192.0000 0000000   0.0000 282.0000 12.65579224    10
CTC2_L_00407017-03
1 87197U 23400RO  26037.47795139  .00000000  00000+0  00000-0 0  9993
2 87197  45.0000 192.0000 0000000   0.0000  12.0000 12.65579224    12
CTC2_L_00407017-04
1 87198U 24193WE  26037.47795139  .00000000  00000+0  00000-0 0  9994
2 87198  45.0000 192.0000 0000000   0.0000 102.0000 12.65579224    13
CTC2_L_00407018-01
1 87199U 24013DN  26037.47795139  .00000000  00000+0  00000-0 0  9996
2 87199  45.0000 204.0000 0000000   0.0000 204.0000 12.65579224    11
CTC2_L_00407018-02
1 87200U 22246ZP  26037.47795139  .00000000  00000+0  00000-0 0  9995
2 87200  45.0000 204.0000 0000000   0.0000 294.0000 12.65579224    13
CTC2_L_00407018-03
1 87201U 26136MW  26037.47795139  .00000000  00000+0  00000-0 0  9998
2 87201  45.0000 204.0000 0000000   0.0000  24.0000 12.65579224    15
CTC2_L_00407018-04
1 87202U 26665FT  26037.47795139  .00000000  00000+0  00000-0 0  9996
2 87202  45.0000 204.0000 0000000   0.0000 114.0000 12.65579224    16
CTC2_L_00407019-01
1 87203U 25052OU  26037.47795139  .00000000  00000+0  00000-0 0  9996
2 87203  45.0000 216.0000 0000000   0.0000 216.0000 12.65579224    13
CTC2_L_00407019-02
1 87204U 22966IU  26037.47795139  .00000000  00000+0  00000-0 0  9998
2 87204  45.0000 216.0000 0000000   0.0000 306.0000 12.65579224    14
CTC2_L_00407019-03
1 87205U 25723BO  26037.47795139  .00000000  00000+0  00000-0 0  9993
2 87205  45.0000 216.0000 0000000   0.0000  36.0000 12.65579224    15
CTC2_L_00407019-04
1 87206U 24655VV  26037.47795139  .00000000  00000+0  00000-0 0  9997
2 87206  45.0000 216.0000 0000000   0.0000 126.0000 12.65579224    16
CTC2_L_00407020-01
1 87207U 24574CT  26037.47795139  .00000000  00000+0  00000-0 0  9998
2 87207  45.0000 228.0000 0000000   0.0000 228.0000 12.65579224    13
CTC2_L_00407020-02
1 87208U 26610MW  26037.47795139  .00000000  00000+0  00000-0 0  9992
2 87208  45.0000 228.0000 0000000   0.0000 318.0000 12.65579224    14
CTC2_L_00407020-03
1 87209U 22667CL  26037.47795139  .00000000  00000+0  00000-0 0  9991
2 87209  45.0000 228.0000 0000000   0.0000  48.0000 12.65579224    15
CTC2_L_00407020-04
1 87210U 26277VD  26037.47795139  .00000000  00000+0  00000-0 0  9994
2 87210  45.0000 228.0000 0000000   0.0000 138.0000 12.65579224    17
CTC2_L_00407021-01
1 87211U 24469NB  26037.47795139  .00000000  00000+0  00000-0 0  9996
2 87211  45.0000 240.0000 0000000   0.0000 240.0000 12.65579224    16
CTC2_L_00407021-02
1 87212U 24789MU  26037.47795139  .00000000  00000+0  00000-0 0  9992
2 87212  45.0000 240.0000 0000000   0.0000 330.0000 12.65579224    17
CTC2_L_00407021-03
1 87213U 23648GW  26037.47795139  .00000000  00000+0  00000-0 0  9996
2 87213  45.0000 240.0000 0000000   0.0000  60.0000 12.65579224    18
CTC2_L_00407021-04
1 87214U 23065OR  26037.47795139  .00000000  00000+0  00000-0 0  9990
2 87214  45.0000 240.0000 0000000   0.0000 150.0000 12.65579224    19
CTC2_L_00407022-01
1 87215U 22091MQ  26037.47795139  .00000000  00000+0  00000-0 0  9999
2 87215  45.0000 252.0000 0000000   0.0000 252.0000 12.65579224    16
CTC2_L_00407022-02
1 87216U 25645PC  26037.47795139  .00000000  00000+0  00000-0 0  9998
2 87216  45.0000 252.0000 0000000   0.0000 342.0000 12.65579224    17
CTC2_L_00407022-03
1 87217U 22738WG  26037.47795139  .00000000  00000+0  00000-0 0  9999
2 87217  45.0000 252.0000 0000000   0.0000  72.0000 12.65579224    18
CTC2_L_00407022-04
1 87218U 23440CW  26037.47795139  .00000000  00000+0  00000-0 0  9991
2 87218  45.0000 252.0000 0000000   0.0000 162.0000 12.65579224    19
CTC2_L_00407023-01
1 87219U 25311KN  26037.47795139  .00000000  00000+0  00000-0 0  9991
2 87219  45.0000 264.0000 0000000   0.0000 264.0000 12.65579224    16
CTC2_L_00407023-02
1 87220U 26587YB  26037.47795139  .00000000  00000+0  00000-0 0  9999
2 87220  45.0000 264.0000 0000000   0.0000 354.0000 12.65579224    18
CTC2_L_00407023-03
1 87221U 26087VA  26037.47795139  .00000000  00000+0  00000-0 0  9995
2 87221  45.0000 264.0000 0000000   0.0000  84.0000 12.65579224    19
CTC2_L_00407023-04
1 87222U 24772LI  26037.47795139  .00000000  00000+0  00000-0 0  9995
2 87222  45.0000 264.0000 0000000   0.0000 174.0000 12.65579224    10
CTC2_L_00407024-01
1 87223U 24780FL  26037.47795139  .00000000  00000+0  00000-0 0  9995
2 87223  45.0000 276.0000 0000000   0.0000 276.0000 12.65579224    17
CTC2_L_00407024-02
1 87224U 23913DP  26037.47795139  .00000000  00000+0  00000-0 0  9993
2 87224  45.0000 276.0000 0000000   0.0000   6.0000 12.65579224    19
CTC2_L_00407024-03
1 87225U 22766HN  26037.47795139  .00000000  00000+0  00000-0 0  9999
2 87225  45.0000 276.0000 0000000   0.0000  96.0000 12.65579224    19
CTC2_L_00407024-04
1 87226U 24425A   26037.47795139  .00000000  00000+0  00000-0 0  9994
2 87226  45.0000 276.0000 0000000   0.0000 186.0000 12.65579224    10
CTC2_L_00407025-01
1 87227U 22685M   26037.47795139  .00000000  00000+0  00000-0 0  9991
2 87227  45.0000 288.0000 0000000   0.0000 288.0000 12.65579224    17
CTC2_L_00407025-02
1 87228U 24164VZ  26037.47795139  .00000000  00000+0  00000-0 0  9996
2 87228  45.0000 288.0000 0000000   0.0000  18.0000 12.65579224    19
CTC2_L_00407025-03
1 87229U 26243SL  26037.47795139  .00000000  00000+0  00000-0 0  9997
2 87229  45.0000 288.0000 0000000   0.0000 108.0000 12.65579224    10
CTC2_L_00407025-04
1 87230U 26567NR  26037.47795139  .00000000  00000+0  00000-0 0  9998
2 87230  45.0000 288.0000 0000000   0.0000 198.0000 12.65579224    11
CTC2_L_00407026-01
1 87231U 25740AY  26037.47795139  .00000000  00000+0  00000-0 0  9991
2 87231  45.0000 300.0000 0000000   0.0000 300.0000 12.65579224    12
CTC2_L_00407026-02
1 87232U 24061GC  26037.47795139  .00000000  00000+0  00000-0 0  9997
2 87232  45.0000 300.0000 0000000   0.0000  30.0000 12.65579224    13
CTC2_L_00407026-03
1 87233U 25396ND  26037.47795139  .00000000  00000+0  00000-0 0  9990
2 87233  45.0000 300.0000 0000000   0.0000 120.0000 12.65579224    14
CTC2_L_00407026-04
1 87234U 24218TO  26037.47795139  .00000000  00000+0  00000-0 0  9993
2 87234  45.0000 300.0000 0000000   0.0000 210.0000 12.65579224    15
CTC2_L_00407027-01
1 87235U 22719HR  26037.47795139  .00000000  00000+0  00000-0 0  9998
2 87235  45.0000 312.0000 0000000   0.0000 312.0000 12.65579224    12
CTC2_L_00407027-02
1 87236U 25969BW  26037.47795139  .00000000  00000+0  00000-0 0  9999
2 87236  45.0000 312.0000 0000000   0.0000  42.0000 12.65579224    13
CTC2_L_00407027-03
1 87237U 22408AC  26037.47795139  .00000000  00000+0  00000-0 0  9995
2 87237  45.0000 312.0000 0000000   0.0000 132.0000 12.65579224    14
CTC2_L_00407027-04
1 87238U 22557WC  26037.47795139  .00000000  00000+0  00000-0 0  9991
2 87238  45.0000 312.0000 0000000   0.0000 222.0000 12.65579224    15
CTC2_L_00407028-01
1 87239U 25715YI  26037.47795139  .00000000  00000+0  00000-0 0  9991
2 87239  45.0000 324.0000 0000000   0.0000 324.0000 12.65579224    12
CTC2_L_00407028-02
1 87240U 25692JJ  26037.47795139  .00000000  00000+0  00000-0 0  9997
2 87240  45.0000 324.0000 0000000   0.0000  54.0000 12.65579224    14
CTC2_L_00407028-03
1 87241U 26253NM  26037.47795139  .00000000  00000+0  00000-0 0  9992
2 87241  45.0000 324.0000 0000000   0.0000 144.0000 12.65579224    15
CTC2_L_00407028-04
1 87242U 26109AO  26037.47795139  .00000000  00000+0  00000-0 0  9993
2 87242  45.0000 324.0000 0000000   0.0000 234.0000 12.65579224    16
CTC2_L_00407029-01
1 87243U 24381UR  26037.47795139  .00000000  00000+0  00000-0 0  9994
2 87243  45.0000 336.0000 0000000   0.0000 336.0000 12.65579224    13
CTC2_L_00407029-02
1 87244U 25095YN  26037.47795139  .00000000  00000+0  00000-0 0  9998
2 87244  45.0000 336.0000 0000000   0.0000  66.0000 12.65579224    14
CTC2_L_00407029-03
1 87245U 24200NJ  26037.47795139  .00000000  00000+0  00000-0 0  9996
2 87245  45.0000 336.0000 0000000   0.0000 156.0000 12.65579224    15
CTC2_L_00407029-04
1 87246U 24857II  26037.47795139  .00000000  00000+0  00000-0 0  9995
2 87246  45.0000 336.0000 0000000   0.0000 246.0000 12.65579224    16
CTC2_L_00407030-01
1 87247U 24267RG  26037.47795139  .00000000  00000+0  00000-0 0  9991
2 87247  45.0000 348.0000 0000000   0.0000 348.0000 12.65579224    13
CTC2_L_00407030-02
1 87248U 22043YU  26037.47795139  .00000000  00000+0  00000-0 0  9992
2 87248  45.0000 348.0000 0000000   0.0000  78.0000 12.65579224    14
CTC2_L_00407030-03
1 87249U 22026OE  26037.47795139  .00000000  00000+0  00000-0 0  9994
2 87249  45.0000 348.0000 0000000   0.0000 168.0000 12.65579224    15
CTC2_L_00407030-04
1 87250U 24381QB  26037.47795139  .00000000  00000+0  00000-0 0  9992
2 87250  45.0000 348.0000 0000000   0.0000 258.0000 12.65579224    17
